ONEWEB-0037             
1 45440U 20020S   24043.82703896 -.00000356  00000+0 -10411-2 0  9991
2 45440  87.8995 191.0593 0001623 113.3482 246.7817 13.11418001190596
ONEWEB-0042             
1 45441U 20020T   24043.83502069 -.00000019  00000+0 -90210-4 0  9995
2 45441  87.9003 191.0816 0001691 104.4842 255.6474 13.11418693190564
ONEWEB-0098             
1 45442U 20020U   24043.44717976 -.00000173  00000+0 -52427-3 0  9996
2 45442  87.9001 191.1675 0001543  96.9191 263.2113 13.11418890190480
ONEWEB-0055             
1 45443U 20020V   24043.43499969 -.00000524  00000+0 -15135-2 0  9999
2 45443  87.8997 191.1735 0001570  97.0179 263.1128 13.11416136190452
ONEWEB-0093             
1 45444U 20020W   24043.40823381  .00000404  00000+0  11049-2 0  9991
2 45444  87.8998 191.1576 0001767  94.0966 266.0364 13.11415168190511
ONEWEB-0029             
1 45445U 20020X   24043.42769821 -.00000374  00000+0 -10910-2 0  9996
2 45445  87.8998 191.1677 0001762 106.2049 253.9273 13.11415681190498
ONEWEB-0068             
1 45446U 20020Y   24043.47884808  .00000437  00000+0  11980-2 0  9991
2 45446  87.8999 191.1426 0001686  96.5269 263.6051 13.11415078190449
ONEWEB-0046             
1 45447U 20020Z   24043.78159887  .00000818  00000+0  22711-2 0  9995
2 45447  87.8998 191.0949 0001665 114.2703 245.8599 13.11417405190508
